{"fetched_at":"2026-03-29T16:36:15Z","count":15609,"tles":[{"name":"STARLINK-36336","line1":"1 67901U 26035Y   26087.78748056  .00135405  00000+0  89291-3 0  9996","line2":"2 67901  97.2864  21.1827 0001274  91.0392 269.1020 15.75227500  6853","category":"Starlink"}]}