{
  "norad_id": 67901,
  "name": "STARLINK-36336",
  "history": [
    {
      "epoch": "2026-03-28T18:53:58.320384",
      "apogee_km": 344.84081761775997,
      "perigee_km": 343.12694567777544,
      "latitude_deg": -67.84047065968724,
      "longitude_deg": -34.301866239868104,
      "semi_major_axis_km": 6722.120881647767,
      "eccentricity": 0.00012748,
      "inclination_deg": 97.2864,
      "raan_deg": 21.1827,
      "arg_perigee_deg": 91.0392,
      "mean_anomaly_deg": 269.102,
      "mean_motion_rev_day": 15.752275
    }
  ]
}